{"type": "FeatureCollection", "features": [ {"type": "Feature", "properties": {"norad_id": 66550, "name": "CZ-7A R/B", "group": "last-30-days", "lat": -4.423376648169796, "lon": -103.68978778202765, "alt_km": 28874.466605255762, "timestamp": "2025-12-04T19:33:58.449150+00:00", "meta": {"OBJECT_NAME": "CZ-7A R/B", "OBJECT_ID": "2025-277B", "EPOCH": "2025-12-01T03:57:29.558880", "MEAN_MOTION": 2.40161271, "ECCENTRICITY": 0.72362879, "INCLINATION": 14.4278, "RA_OF_ASC_NODE": 275.378, "ARG_OF_PERICENTER": 178.5774, "MEAN_ANOMALY": 186.2906, "EPHEMERIS_TYPE": 0, "CLASSIFICATION_TYPE": "U", "NORAD_CAT_ID": 66550, "ELEMENT_SET_NO": 999, "REV_AT_EPOCH": 5, "BSTAR": 4.4603974e-05, "MEAN_MOTION_DOT": 0.00016399, "MEAN_MOTION_DDOT": -7.1945e-08}, "tle": {"line1": "1 66550U 25277B   25335.16492545  .00016399 -71945-7  44604-4 0  9993", "line2": "2 66550  14.4278 275.3780 7236287 178.5774 186.2906  2.40161271    57"}}, "geometry": {"type": "Point", "coordinates": [-103.68978778202765, -4.423376648169796]}}, {"type": "Feature", "properties": {"norad_id": 66551, "name": "UNKNOWN", "group": "last-30-days", "lat": 51.60124392367797, "lon": -62.92448168970992, "alt_km": 322.90011403599146, "timestamp": "2025-12-04T19:33:58.449163+00:00", "meta": {"OBJECT_NAME": "UNKNOWN", "OBJECT_ID": "2025-271AE", "EPOCH": "2025-12-02T16:00:03.000096", "MEAN_MOTION": 15.87051116, "ECCENTRICITY": 7.17e-05, "INCLINATION": 53.1571, "RA_OF_ASC_NODE": 236.7807, "ARG_OF_PERICENTER": 110.7411, "MEAN_ANOMALY": 313.9012, "EPHEMERIS_TYPE": 0, "CLASSIFICATION_TYPE": "U", "NORAD_CAT_ID": 66551, "ELEMENT_SET_NO": 999, "REV_AT_EPOCH": 262, "BSTAR": -0.0074303, "MEAN_MOTION_DOT": -0.01709685, "MEAN_MOTION_DDOT": 0}, "tle": {"line1": "1 66551U 25271AE  25336.66670139 -.01709685  00000+0 -74303-2 0  9993", "line2": "2 66551  53.1571 236.7807 0000717 110.7411 313.9012 15.87051116  2624"}}, "geometry": {"type": "Point", "coordinates": [-62.92448168970992, 51.60124392367797]}}, {"type": "Feature", "properties": {"norad_id": 66554, "name": "GLOBAL-33", "group": "last-30-days", "lat": -33.338921340284095, "lon": -30.328117811352914, "alt_km": 476.43794509495274, "timestamp": "2025-12-04T19:33:58.449172+00:00", "meta": {"OBJECT_NAME": "GLOBAL-33", "OBJECT_ID": "2025-267A", "EPOCH": "2025-12-04T07:35:11.739840", "MEAN_MOTION": 15.31329239, "ECCENTRICITY": 0.00054174, "INCLINATION": 42.0188, "RA_OF_ASC_NODE": 105.6127, "ARG_OF_PERICENTER": 352.0911, "MEAN_ANOMALY": 7.984, "EPHEMERIS_TYPE": 0, "CLASSIFICATION_TYPE": "U", "NORAD_CAT_ID": 66554, "ELEMENT_SET_NO": 999, "REV_AT_EPOCH": 211, "BSTAR": 0.00087786479, "MEAN_MOTION_DOT": 0.00026994, "MEAN_MOTION_DDOT": 0}, "tle": {"line1": "1 66554U 25267A   25338.31610810  .00026994  00000+0  87786-3 0  9997", "line2": "2 66554  42.0188 105.6127 0005417 352.0911   7.9840 15.31329239  2111"}}, "geometry": {"type": "Point", "coordinates": [-30.328117811352914, -33.338921340284095]}}, {"type": "Feature", "properties": {"norad_id": 66555, "name": "ELECTRON KICK STAGE R/B", "group": "last-30-days", "lat": -41.98565445462176, "lon": 14.286051066571243, "alt_km": 471.75864741061923, "timestamp": "2025-12-04T19:33:58.449181+00:00", "meta": {"OBJECT_NAME": "ELECTRON KICK STAGE R/B", "OBJECT_ID": "2025-267B", "EPOCH": "2025-12-04T07:26:12.244416", "MEAN_MOTION": 15.32204395, "ECCENTRICITY": 0.00073266, "INCLINATION": 42.0174, "RA_OF_ASC_NODE": 105.5669, "ARG_OF_PERICENTER": 351.4521, "MEAN_ANOMALY": 8.619, "EPHEMERIS_TYPE": 0, "CLASSIFICATION_TYPE": "U", "NORAD_CAT_ID": 66555, "ELEMENT_SET_NO": 999, "REV_AT_EPOCH": 211, "BSTAR": 0.0015544226, "MEAN_MOTION_DOT": 0.00049498, "MEAN_MOTION_DDOT": 0}, "tle": {"line1": "1 66555U 25267B   25338.30986394  .00049498  00000+0  15544-2 0  9996", "line2": "2 66555  42.0174 105.5669 0007326 351.4521   8.6190 15.32204395  2110"}}, "geometry": {"type": "Point", "coordinates": [14.286051066571243, -41.98565445462176]}}, {"type": "Feature", "properties": {"norad_id": 66557, "name": "STARLINK-35699", "group": "last-30-days", "lat": -36.87075555217237, "lon": 114.31072078505998, "alt_km": 361.81722080473264, "timestamp": "2025-12-04T19:33:58.449190+00:00", "meta": {"OBJECT_NAME": "STARLINK-35699", "OBJECT_ID": "2025-268A", "EPOCH": "2025-12-04T08:00:01.999872", "MEAN_MOTION": 15.71621723, "ECCENTRICITY": 0.0001689, "INCLINATION": 42.9992, "RA_OF_ASC_NODE": 170.8173, "ARG_OF_PERICENTER": 275.2725, "MEAN_ANOMALY": 175.0104, "EPHEMERIS_TYPE": 0, "CLASSIFICATION_TYPE": "U", "NORAD_CAT_ID": 66557, "ELEMENT_SET_NO": 999, "REV_AT_EPOCH": 331, "BSTAR": -0.016378025, "MEAN_MOTION_DOT": -0.01926067, "MEAN_MOTION_DDOT": 0}, "tle": {"line1": "1 66557U 25268A   25338.33335648 -.01926067  00000+0 -16378-1 0  9996", "line2": "2 66557  42.9992 170.8173 0001689 275.2725 175.0104 15.71621723  3317"}}, "geometry": {"type": "Point", "coordinates": [114.31072078505998, -36.87075555217237]}}, {"type": "Feature", "properties": {"norad_id": 66558, "name": "STARLINK-35695", "group": "last-30-days", "lat": -36.07623128456993, "lon": 116.47296215134014, "alt_km": 361.81279141604773, "timestamp": "2025-12-04T19:33:58.449199+00:00", "meta": {"OBJECT_NAME": "STARLINK-35695", "OBJECT_ID": "2025-268B", "EPOCH": "2025-12-04T08:00:01.999872", "MEAN_MOTION": 15.71621543, "ECCENTRICITY": 0.00016569, "INCLINATION": 42.9991, "RA_OF_ASC_NODE": 170.8126, "ARG_OF_PERICENTER": 275.6878, "MEAN_ANOMALY": 176.5125, "EPHEMERIS_TYPE": 0, "CLASSIFICATION_TYPE": "U", "NORAD_CAT_ID": 66558, "ELEMENT_SET_NO": 999, "REV_AT_EPOCH": 331, "BSTAR": -0.016377242, "MEAN_MOTION_DOT": -0.01925947, "MEAN_MOTION_DDOT": 0}, "tle": {"line1": "1 66558U 25268B   25338.33335648 -.01925947  00000+0 -16377-1 0  9992", "line2": "2 66558  42.9991 170.8126 0001656 275.6878 176.5125 15.71621543  3311"}}, "geometry": {"type": "Point", "coordinates": [116.47296215134014, -36.07623128456993]}}, {"type": "Feature", "properties": {"norad_id": 66559, "name": "STARLINK-35419", "group": "last-30-days", "lat": -35.24273645844931, "lon": 118.59339005183134, "alt_km": 361.83786470082305, "timestamp": "2025-12-04T19:33:58.449210+00:00", "meta": {"OBJECT_NAME": "STARLINK-35419", "OBJECT_ID": "2025-268C", "EPOCH": "2025-12-04T08:00:01.999872", "MEAN_MOTION": 15.71621195, "ECCENTRICITY": 0.00016338, "INCLINATION": 42.9992, "RA_OF_ASC_NODE": 170.8081, "ARG_OF_PERICENTER": 273.1822, "MEAN_ANOMALY": 180.9365, "EPHEMERIS_TYPE": 0, "CLASSIFICATION_TYPE": "U", "NORAD_CAT_ID": 66559, "ELEMENT_SET_NO": 999, "REV_AT_EPOCH": 331, "BSTAR": -0.016375519, "MEAN_MOTION_DOT": -0.01925724, "MEAN_MOTION_DDOT": 0}, "tle": {"line1": "1 66559U 25268C   25338.33335648 -.01925724  00000+0 -16376-1 0  9995", "line2": "2 66559  42.9992 170.8081 0001633 273.1822 180.9365 15.71621195  3318"}}, "geometry": {"type": "Point", "coordinates": [118.59339005183134, -35.24273645844931]}}, {"type": "Feature", "properties": {"norad_id": 66560, "name": "STARLINK-35411", "group": "last-30-days", "lat": -34.3740601093993, "lon": 120.66613663272707, "alt_km": 361.81962066234155, "timestamp": "2025-12-04T19:33:58.449219+00:00", "meta": {"OBJECT_NAME": "STARLINK-35411", "OBJECT_ID": "2025-268D", "EPOCH": "2025-12-04T08:00:01.999872", "MEAN_MOTION": 15.71622662, "ECCENTRICITY": 0.00015856, "INCLINATION": 42.9991, "RA_OF_ASC_NODE": 170.8033, "ARG_OF_PERICENTER": 274.9902, "MEAN_ANOMALY": 181.0444, "EPHEMERIS_TYPE": 0, "CLASSIFICATION_TYPE": "U", "NORAD_CAT_ID": 66560, "ELEMENT_SET_NO": 999, "REV_AT_EPOCH": 331, "BSTAR": -0.016389316, "MEAN_MOTION_DOT": -0.01927231, "MEAN_MOTION_DDOT": 0}, "tle": {"line1": "1 66560U 25268D   25338.33335648 -.01927231  00000+0 -16389-1 0  9996", "line2": "2 66560  42.9991 170.8033 0001585 274.9902 181.0444 15.71622662  3310"}}, "geometry": {"type": "Point", "coordinates": [120.66613663272707, -34.3740601093993]}}, {"type": "Feature", "properties": {"norad_id": 66561, "name": "STARLINK-35305", "group": "last-30-days", "lat": -32.533953791761, "lon": 124.68545279007705, "alt_km": 361.870316969188, "timestamp": "2025-12-04T19:33:58.449230+00:00", "meta": {"OBJECT_NAME": "STARLINK-35305", "OBJECT_ID": "2025-268E", "EPOCH": "2025-12-04T08:00:01.999872", "MEAN_MOTION": 15.71621545, "ECCENTRICITY": 0.00014842, "INCLINATION": 42.9992, "RA_OF_ASC_NODE": 170.7935, "ARG_OF_PERICENTER": 272.2371, "MEAN_ANOMALY": 187.6339, "EPHEMERIS_TYPE": 0, "CLASSIFICATION_TYPE": "U", "NORAD_CAT_ID": 66561, "ELEMENT_SET_NO": 999, "REV_AT_EPOCH": 326, "BSTAR": -0.016387242, "MEAN_MOTION_DOT": -0.01926854, "MEAN_MOTION_DDOT": 0}, "tle": {"line1": "1 66561U 25268E   25338.33335648 -.01926854  00000+0 -16387-1 0  9995", "line2": "2 66561  42.9992 170.7935 0001484 272.2371 187.6339 15.71621545  3269"}}, "geometry": {"type": "Point", "coordinates": [124.68545279007705, -32.533953791761]}}, {"type": "Feature", "properties": {"norad_id": 66562, "name": "STARLINK-35579", "group": "last-30-days", "lat": -33.46969560619537, "lon": 122.69810588836809, "alt_km": 361.91655535192695, "timestamp": "2025-12-04T19:33:58.449239+00:00", "meta": {"OBJECT_NAME": "STARLINK-35579", "OBJECT_ID": "2025-268F", "EPOCH": "2025-12-04T08:00:01.999872", "MEAN_MOTION": 15.71623877, "ECCENTRICITY": 0.00015126, "INCLINATION": 42.9992, "RA_OF_ASC_NODE": 170.7979, "ARG_OF_PERICENTER": 270.1073, "MEAN_ANOMALY": 187.8446, "EPHEMERIS_TYPE": 0, "CLASSIFICATION_TYPE": "U", "NORAD_CAT_ID": 66562, "ELEMENT_SET_NO": 999, "REV_AT_EPOCH": 331, "BSTAR": -0.016407243, "MEAN_MOTION_DOT": -0.0192913, "MEAN_MOTION_DDOT": 0}, "tle": {"line1": "1 66562U 25268F   25338.33335648 -.01929130  00000+0 -16407-1 0  9999", "line2": "2 66562  42.9992 170.7979 0001512 270.1073 187.8446 15.71623877  3313"}}, "geometry": {"type": "Point", "coordinates": [122.69810588836809, -33.46969560619537]}}]}